FACSAT-2                
1 56205U 23054AD  23339.10584558  .00020247  00000+0  72677-3 0  9994
2 56205  97.3868 232.4039 0015091 120.3144 239.9590 15.28605285 36250
