{"type": "Feature", "geometry": {"type": "Point", "coordinates": ["-75.21", "4.121"]}, "properties": {"temperature": "25", "pressure": "1,014", "localTime": "Tue Dec 05 2023 10:09:17 GMT-0500 (hora est\u00e1ndar de Colombia)", "julianTime": "1701788957", "utcTime": "10:09:25 AM", "altitude": "485.17", "elevation": "+22.5", "TLE": {"Norad_Id": 56205, "International_Classification": "Unclassified", "International_Designation": "23054AD", "Epoch_Time_(ISO)": "2023-12-05T02:32:25Z", "First_Derivative_Mean_Motion": 0.00020247, "Second_Derivative_Mean_Motion": 0.0, "Inclination": 97.3868, "Right_Ascension_of_the_Ascending_Node": 232.4039, "Eccentricity": 0.0015091, "Argument_of_Perigee": 120.31440000000002, "Mean_Anomaly": 239.959, "Mean_Motion": 15.28605285, "Revolution_Number_at_Epoch": 3625}}}